{"type": "FeatureCollection", "features": [ {"type": "Feature", "properties": {"norad_id": 34031, "name": "COSMOS 2251 DEB", "group": "cosmos-2251-debris", "lat": 24.644502441829076, "lon": -59.79925773263354, "alt_km": 693.945892426118, "timestamp": "2025-12-16T21:38:57.568752+00:00", "meta": {"OBJECT_NAME": "COSMOS 2251 DEB", "OBJECT_ID": "1993-036HS", "EPOCH": "2025-12-15T10:39:33.733152", "MEAN_MOTION": 14.59721848, "ECCENTRICITY": 0.00230079, "INCLINATION": 74.0124, "RA_OF_ASC_NODE": 130.5424, "ARG_OF_PERICENTER": 250.7573, "MEAN_ANOMALY": 165.4684, "EPHEMERIS_TYPE": 0, "CLASSIFICATION_TYPE": "U", "NORAD_CAT_ID": 34031, "ELEMENT_SET_NO": 999, "REV_AT_EPOCH": 88605, "BSTAR": 0.00088870257, "MEAN_MOTION_DOT": 4.227e-05, "MEAN_MOTION_DDOT": 0}, "tle": {"line1": "1 34031U 93036HS  25349.44414043  .00004227  00000+0  88870-3 0  9997", "line2": "2 34031  74.0124 130.5424 0023007 250.7573 165.4684 14.59721848886051"}}, "geometry": {"type": "Point", "coordinates": [-59.79925773263354, 24.644502441829076]}}, {"type": "Feature", "properties": {"norad_id": 34035, "name": "COSMOS 2251 DEB", "group": "cosmos-2251-debris", "lat": -20.493903656317624, "lon": 167.4422619337946, "alt_km": 748.6377620683134, "timestamp": "2025-12-16T21:38:57.568763+00:00", "meta": {"OBJECT_NAME": "COSMOS 2251 DEB", "OBJECT_ID": "1993-036HW", "EPOCH": "2025-12-16T07:47:07.079136", "MEAN_MOTION": 14.51988505, "ECCENTRICITY": 0.00449549, "INCLINATION": 74.0654, "RA_OF_ASC_NODE": 342.3982, "ARG_OF_PERICENTER": 343.1436, "MEAN_ANOMALY": 80.0933, "EPHEMERIS_TYPE": 0, "CLASSIFICATION_TYPE": "U", "NORAD_CAT_ID": 34035, "ELEMENT_SET_NO": 999, "REV_AT_EPOCH": 88018, "BSTAR": 0.0012293043, "MEAN_MOTION_DOT": 5.006e-05, "MEAN_MOTION_DDOT": 0}, "tle": {"line1": "1 34035U 93036HW  25350.32438749  .00005006  00000+0  12293-2 0  9990", "line2": "2 34035  74.0654 342.3982 0044954 343.1436  80.0933 14.51988505880188"}}, "geometry": {"type": "Point", "coordinates": [167.4422619337946, -20.493903656317624]}}, {"type": "Feature", "properties": {"norad_id": 34036, "name": "COSMOS 2251 DEB", "group": "cosmos-2251-debris", "lat": 26.51940105588015, "lon": 149.0860011367915, "alt_km": 586.8522649632623, "timestamp": "2025-12-16T21:38:57.568786+00:00", "meta": {"OBJECT_NAME": "COSMOS 2251 DEB", "OBJECT_ID": "1993-036HX", "EPOCH": "2025-12-15T11:48:16.297920", "MEAN_MOTION": 14.95207408, "ECCENTRICITY": 0.00117703, "INCLINATION": 74.0192, "RA_OF_ASC_NODE": 143.7108, "ARG_OF_PERICENTER": 175.2274, "MEAN_ANOMALY": 184.9024, "EPHEMERIS_TYPE": 0, "CLASSIFICATION_TYPE": "U", "NORAD_CAT_ID": 34036, "ELEMENT_SET_NO": 999, "REV_AT_EPOCH": 88611, "BSTAR": 0.0024574884, "MEAN_MOTION_DOT": 0.00027124, "MEAN_MOTION_DDOT": 0}, "tle": {"line1": "1 34036U 93036HX  25349.49185530  .00027124  00000+0  24575-2 0  9995", "line2": "2 34036  74.0192 143.7108 0011770 175.2274 184.9024 14.95207408886111"}}, "geometry": {"type": "Point", "coordinates": [149.0860011367915, 26.51940105588015]}}, {"type": "Feature", "properties": {"norad_id": 34037, "name": "COSMOS 2251 DEB", "group": "cosmos-2251-debris", "lat": -72.26999852904575, "lon": -73.74273885173938, "alt_km": 819.7237544970085, "timestamp": "2025-12-16T21:38:57.568797+00:00", "meta": {"OBJECT_NAME": "COSMOS 2251 DEB", "OBJECT_ID": "1993-036HY", "EPOCH": "2025-12-16T07:02:46.323744", "MEAN_MOTION": 14.34674472, "ECCENTRICITY": 0.00519036, "INCLINATION": 74.0515, "RA_OF_ASC_NODE": 43.9382, "ARG_OF_PERICENTER": 92.8723, "MEAN_ANOMALY": 267.8371, "EPHEMERIS_TYPE": 0, "CLASSIFICATION_TYPE": "U", "NORAD_CAT_ID": 34037, "ELEMENT_SET_NO": 999, "REV_AT_EPOCH": 87768, "BSTAR": 0.00040592181, "MEAN_MOTION_DOT": 1.141e-05, "MEAN_MOTION_DDOT": 0}, "tle": {"line1": "1 34037U 93036HY  25350.29359171  .00001141  00000+0  40592-3 0  9999", "line2": "2 34037  74.0515  43.9382 0051903  92.8723 267.8371 14.34674472877681"}}, "geometry": {"type": "Point", "coordinates": [-73.74273885173938, -72.26999852904575]}}, {"type": "Feature", "properties": {"norad_id": 34040, "name": "COSMOS 2251 DEB", "group": "cosmos-2251-debris", "lat": -53.493355302555244, "lon": -98.13537331599998, "alt_km": 1186.118710276206, "timestamp": "2025-12-16T21:38:57.568807+00:00", "meta": {"OBJECT_NAME": "COSMOS 2251 DEB", "OBJECT_ID": "1993-036JB", "EPOCH": "2025-12-16T08:12:16.363584", "MEAN_MOTION": 13.68379633, "ECCENTRICITY": 0.03431413, "INCLINATION": 73.9559, "RA_OF_ASC_NODE": 59.9112, "ARG_OF_PERICENTER": 12.5462, "MEAN_ANOMALY": 348.3927, "EPHEMERIS_TYPE": 0, "CLASSIFICATION_TYPE": "U", "NORAD_CAT_ID": 34040, "ELEMENT_SET_NO": 999, "REV_AT_EPOCH": 83649, "BSTAR": 0.0004939044, "MEAN_MOTION_DOT": 6.14e-06, "MEAN_MOTION_DDOT": 0}, "tle": {"line1": "1 34040U 93036JB  25350.34185606  .00000614  00000+0  49390-3 0  9998", "line2": "2 34040  73.9559  59.9112 0343141  12.5462 348.3927 13.68379633836499"}}, "geometry": {"type": "Point", "coordinates": [-98.13537331599998, -53.493355302555244]}}, {"type": "Feature", "properties": {"norad_id": 34045, "name": "COSMOS 2251 DEB", "group": "cosmos-2251-debris", "lat": -58.664765964418656, "lon": -84.82136189042265, "alt_km": 784.269987747406, "timestamp": "2025-12-16T21:38:57.568817+00:00", "meta": {"OBJECT_NAME": "COSMOS 2251 DEB", "OBJECT_ID": "1993-036JG", "EPOCH": "2025-12-16T07:34:44.152320", "MEAN_MOTION": 14.34070922, "ECCENTRICITY": 0.00258148, "INCLINATION": 74.0393, "RA_OF_ASC_NODE": 304.2881, "ARG_OF_PERICENTER": 26.7445, "MEAN_ANOMALY": 125.4558, "EPHEMERIS_TYPE": 0, "CLASSIFICATION_TYPE": "U", "NORAD_CAT_ID": 34045, "ELEMENT_SET_NO": 999, "REV_AT_EPOCH": 88084, "BSTAR": 9.5437439e-05, "MEAN_MOTION_DOT": 2.42e-06, "MEAN_MOTION_DDOT": 0}, "tle": {"line1": "1 34045U 93036JG  25350.31578880  .00000242  00000+0  95437-4 0  9991", "line2": "2 34045  74.0393 304.2881 0025814  26.7445 125.4558 14.34070922880848"}}, "geometry": {"type": "Point", "coordinates": [-84.82136189042265, -58.664765964418656]}}, {"type": "Feature", "properties": {"norad_id": 34046, "name": "COSMOS 2251 DEB", "group": "cosmos-2251-debris", "lat": 62.31358115257372, "lon": 149.64910071922145, "alt_km": 683.7822944561567, "timestamp": "2025-12-16T21:38:57.568828+00:00", "meta": {"OBJECT_NAME": "COSMOS 2251 DEB", "OBJECT_ID": "1993-036JH", "EPOCH": "2025-12-16T01:21:33.892128", "MEAN_MOTION": 14.46501056, "ECCENTRICITY": 0.00744422, "INCLINATION": 74.0396, "RA_OF_ASC_NODE": 4.2799, "ARG_OF_PERICENTER": 86.7081, "MEAN_ANOMALY": 305.1467, "EPHEMERIS_TYPE": 0, "CLASSIFICATION_TYPE": "U", "NORAD_CAT_ID": 34046, "ELEMENT_SET_NO": 999, "REV_AT_EPOCH": 87874, "BSTAR": 0.00080076057, "MEAN_MOTION_DOT": 2.957e-05, "MEAN_MOTION_DDOT": 0}, "tle": {"line1": "1 34046U 93036JH  25350.05664227  .00002957  00000+0  80076-3 0  9991", "line2": "2 34046  74.0396   4.2799 0074442  86.7081 305.1467 14.46501056878742"}}, "geometry": {"type": "Point", "coordinates": [149.64910071922145, 62.31358115257372]}}, {"type": "Feature", "properties": {"norad_id": 34050, "name": "COSMOS 2251 DEB", "group": "cosmos-2251-debris", "lat": -44.64426529961504, "lon": -13.450946069092737, "alt_km": 971.6705902180556, "timestamp": "2025-12-16T21:38:57.568839+00:00", "meta": {"OBJECT_NAME": "COSMOS 2251 DEB", "OBJECT_ID": "1993-036JM", "EPOCH": "2025-12-16T08:11:02.024160", "MEAN_MOTION": 13.9618873, "ECCENTRICITY": 0.02145935, "INCLINATION": 74.0884, "RA_OF_ASC_NODE": 3.8748, "ARG_OF_PERICENTER": 67.2663, "MEAN_ANOMALY": 309.1998, "EPHEMERIS_TYPE": 0, "CLASSIFICATION_TYPE": "U", "NORAD_CAT_ID": 34050, "ELEMENT_SET_NO": 999, "REV_AT_EPOCH": 85482, "BSTAR": 0.00058597815, "MEAN_MOTION_DOT": 9.56e-06, "MEAN_MOTION_DDOT": 0}, "tle": {"line1": "1 34050U 93036JM  25350.34099565  .00000956  00000+0  58598-3 0  9996", "line2": "2 34050  74.0884   3.8748 0214593  67.2663 309.1998 13.96188730854821"}}, "geometry": {"type": "Point", "coordinates": [-13.450946069092737, -44.64426529961504]}}, {"type": "Feature", "properties": {"norad_id": 34053, "name": "COSMOS 2251 DEB", "group": "cosmos-2251-debris", "lat": -56.75138104605017, "lon": -150.77682854331397, "alt_km": 1034.9682382736728, "timestamp": "2025-12-16T21:38:57.568850+00:00", "meta": {"OBJECT_NAME": "COSMOS 2251 DEB", "OBJECT_ID": "1993-036JQ", "EPOCH": "2025-12-16T02:21:36.230400", "MEAN_MOTION": 13.49166463, "ECCENTRICITY": 0.04224225, "INCLINATION": 73.8437, "RA_OF_ASC_NODE": 236.7593, "ARG_OF_PERICENTER": 24.7535, "MEAN_ANOMALY": 337.3203, "EPHEMERIS_TYPE": 0, "CLASSIFICATION_TYPE": "U", "NORAD_CAT_ID": 34053, "ELEMENT_SET_NO": 999, "REV_AT_EPOCH": 82729, "BSTAR": 0.00065657628, "MEAN_MOTION_DOT": 6.95e-06, "MEAN_MOTION_DDOT": 0}, "tle": {"line1": "1 34053U 93036JQ  25350.09833600  .00000695  00000+0  65658-3 0  9992", "line2": "2 34053  73.8437 236.7593 0422422  24.7535 337.3203 13.49166463827298"}}, "geometry": {"type": "Point", "coordinates": [-150.77682854331397, -56.75138104605017]}}, {"type": "Feature", "properties": {"norad_id": 34056, "name": "COSMOS 2251 DEB", "group": "cosmos-2251-debris", "lat": 67.64557449160851, "lon": -155.08983884349095, "alt_km": 728.5109169545112, "timestamp": "2025-12-16T21:38:57.568860+00:00", "meta": {"OBJECT_NAME": "COSMOS 2251 DEB", "OBJECT_ID": "1993-036JT", "EPOCH": "2025-12-16T07:55:45.567264", "MEAN_MOTION": 14.20571253, "ECCENTRICITY": 0.01239118, "INCLINATION": 74.0597, "RA_OF_ASC_NODE": 69.9569, "ARG_OF_PERICENTER": 116.8412, "MEAN_ANOMALY": 306.8658, "EPHEMERIS_TYPE": 0, "CLASSIFICATION_TYPE": "U", "NORAD_CAT_ID": 34056, "ELEMENT_SET_NO": 999, "REV_AT_EPOCH": 86462, "BSTAR": 0.00059792622, "MEAN_MOTION_DOT": 1.365e-05, "MEAN_MOTION_DDOT": 0}, "tle": {"line1": "1 34056U 93036JT  25350.33038851  .00001365  00000+0  59793-3 0  9995", "line2": "2 34056  74.0597  69.9569 0123911 116.8412 306.8658 14.20571253864628"}}, "geometry": {"type": "Point", "coordinates": [-155.08983884349095, 67.64557449160851]}}]}